[
    {
        "dial_code": "880",
        "flag": "ðŸ‡§ðŸ‡©",
        "id": 1,
        "iso2": "BD",
        "iso3": "BGD",
        "name": "Bangladesh"
    },
    {
        "dial_code": "32",
        "flag": "ðŸ‡§ðŸ‡ª",
        "id": 2,
        "iso2": "BE",
        "iso3": "BEL",
        "name": "Belgium"
    },
    {
        "dial_code": "226",
        "flag": "ðŸ‡§ðŸ‡«",
        "id": 3,
        "iso2": "BF",
        "iso3": "BFA",
        "name": "Burkina Faso"
    },
    {
        "dial_code": "359",
        "flag": "ðŸ‡§ðŸ‡¬",
        "id": 4,
        "iso2": "BG",
        "iso3": "BGR",
        "name": "Bulgaria"
    },
    {
        "dial_code": "387",
        "flag": "ðŸ‡§ðŸ‡¦",
        "id": 5,
        "iso2": "BA",
        "iso3": "BIH",
        "name": "Bosnia and Herzegovina"
    },
    {
        "dial_code": "+1-246",
        "flag": "ðŸ‡§ðŸ‡§",
        "id": 6,
        "iso2": "BB",
        "iso3": "BRB",
        "name": "Barbados"
    },
    {
        "dial_code": "681",
        "flag": "ðŸ‡¼ðŸ‡«",
        "id": 7,
        "iso2": "WF",
        "iso3": "WLF",
        "name": "Wallis and Futuna"
    },
    {
        "dial_code": "590",
        "flag": "ðŸ‡§ðŸ‡±",
        "id": 8,
        "iso2": "BL",
        "iso3": "BLM",
        "name": "Saint Barthelemy"
    },
    {
        "dial_code": "+1-441",
        "flag": "ðŸ‡§ðŸ‡²",
        "id": 9,
        "iso2": "BM",
        "iso3": "BMU",
        "name": "Bermuda"
    },
    {
        "dial_code": "673",
        "flag": "ðŸ‡§ðŸ‡³",
        "id": 10,
        "iso2": "BN",
        "iso3": "BRN",
        "name": "Brunei"
    },
    {
        "dial_code": "591",
        "flag": "ðŸ‡§ðŸ‡´",
        "id": 11,
        "iso2": "BO",
        "iso3": "BOL",
        "name": "Bolivia"
    },
    {
        "dial_code": "973",
        "flag": "ðŸ‡§ðŸ‡­",
        "id": 12,
        "iso2": "BH",
        "iso3": "BHR",
        "name": "Bahrain"
    },
    {
        "dial_code": "257",
        "flag": "ðŸ‡§ðŸ‡®",
        "id": 13,
        "iso2": "BI",
        "iso3": "BDI",
        "name": "Burundi"
    },
    {
        "dial_code": "229",
        "flag": "ðŸ‡§ðŸ‡¯",
        "id": 14,
        "iso2": "BJ",
        "iso3": "BEN",
        "name": "Benin"
    },
    {
        "dial_code": "975",
        "flag": "ðŸ‡§ðŸ‡¹",
        "id": 15,
        "iso2": "BT",
        "iso3": "BTN",
        "name": "Bhutan"
    },
    {
        "dial_code": "+1-876",
        "flag": "ðŸ‡¯ðŸ‡²",
        "id": 16,
        "iso2": "JM",
        "iso3": "JAM",
        "name": "Jamaica"
    },
    {
        "dial_code": "",
        "flag": "ðŸ‡§ðŸ‡»",
        "id": 17,
        "iso2": "BV",
        "iso3": "BVT",
        "name": "Bouvet Island"
    },
    {
        "dial_code": "267",
        "flag": "ðŸ‡§ðŸ‡¼",
        "id": 18,
        "iso2": "BW",
        "iso3": "BWA",
        "name": "Botswana"
    },
    {
        "dial_code": "685",
        "flag": "ðŸ‡¼ðŸ‡¸",
        "id": 19,
        "iso2": "WS",
        "iso3": "WSM",
        "name": "Samoa"
    },
    {
        "dial_code": "599",
        "flag": "ðŸ‡§ðŸ‡¶",
        "id": 20,
        "iso2": "BQ",
        "iso3": "BES",
        "name": "Bonaire, Saint Eustatius and Saba "
    },
    {
        "dial_code": "55",
        "flag": "ðŸ‡§ðŸ‡·",
        "id": 21,
        "iso2": "BR",
        "iso3": "BRA",
        "name": "Brazil"
    },
    {
        "dial_code": "+1-242",
        "flag": "ðŸ‡§ðŸ‡¸",
        "id": 22,
        "iso2": "BS",
        "iso3": "BHS",
        "name": "Bahamas"
    },
    {
        "dial_code": "+44-1534",
        "flag": "ðŸ‡¯ðŸ‡ª",
        "id": 23,
        "iso2": "JE",
        "iso3": "JEY",
        "name": "Jersey"
    },
    {
        "dial_code": "375",
        "flag": "ðŸ‡§ðŸ‡¾",
        "id": 24,
        "iso2": "BY",
        "iso3": "BLR",
        "name": "Belarus"
    },
    {
        "dial_code": "501",
        "flag": "ðŸ‡§ðŸ‡¿",
        "id": 25,
        "iso2": "BZ",
        "iso3": "BLZ",
        "name": "Belize"
    },
    {
        "dial_code": "7",
        "flag": "ðŸ‡·ðŸ‡º",
        "id": 26,
        "iso2": "RU",
        "iso3": "RUS",
        "name": "Russia"
    },
    {
        "dial_code": "250",
        "flag": "ðŸ‡·ðŸ‡¼",
        "id": 27,
        "iso2": "RW",
        "iso3": "RWA",
        "name": "Rwanda"
    },
    {
        "dial_code": "381",
        "flag": "ðŸ‡·ðŸ‡¸",
        "id": 28,
        "iso2": "RS",
        "iso3": "SRB",
        "name": "Serbia"
    },
    {
        "dial_code": "670",
        "flag": "ðŸ‡¹ðŸ‡±",
        "id": 29,
        "iso2": "TL",
        "iso3": "TLS",
        "name": "East Timor"
    },
    {
        "dial_code": "262",
        "flag": "ðŸ‡·ðŸ‡ª",
        "id": 30,
        "iso2": "RE",
        "iso3": "REU",
        "name": "Reunion"
    },
    {
        "dial_code": "993",
        "flag": "ðŸ‡¹ðŸ‡²",
        "id": 31,
        "iso2": "TM",
        "iso3": "TKM",
        "name": "Turkmenistan"
    },
    {
        "dial_code": "992",
        "flag": "ðŸ‡¹ðŸ‡¯",
        "id": 32,
        "iso2": "TJ",
        "iso3": "TJK",
        "name": "Tajikistan"
    },
    {
        "dial_code": "40",
        "flag": "ðŸ‡·ðŸ‡´",
        "id": 33,
        "iso2": "RO",
        "iso3": "ROU",
        "name": "Romania"
    },
    {
        "dial_code": "690",
        "flag": "ðŸ‡¹ðŸ‡°",
        "id": 34,
        "iso2": "TK",
        "iso3": "TKL",
        "name": "Tokelau"
    },
    {
        "dial_code": "245",
        "flag": "ðŸ‡¬ðŸ‡¼",
        "id": 35,
        "iso2": "GW",
        "iso3": "GNB",
        "name": "Guinea-Bissau"
    },
    {
        "dial_code": "+1-671",
        "flag": "ðŸ‡¬ðŸ‡º",
        "id": 36,
        "iso2": "GU",
        "iso3": "GUM",
        "name": "Guam"
    },
    {
        "dial_code": "502",
        "flag": "ðŸ‡¬ðŸ‡¹",
        "id": 37,
        "iso2": "GT",
        "iso3": "GTM",
        "name": "Guatemala"
    },
    {
        "dial_code": "",
        "flag": "ðŸ‡¬ðŸ‡¸",
        "id": 38,
        "iso2": "GS",
        "iso3": "SGS",
        "name": "South Georgia and the South Sandwich Islands"
    },
    {
        "dial_code": "30",
        "flag": "ðŸ‡¬ðŸ‡·",
        "id": 39,
        "iso2": "GR",
        "iso3": "GRC",
        "name": "Greece"
    },
    {
        "dial_code": "240",
        "flag": "ðŸ‡¬ðŸ‡¶",
        "id": 40,
        "iso2": "GQ",
        "iso3": "GNQ",
        "name": "Equatorial Guinea"
    },
    {
        "dial_code": "590",
        "flag": "ðŸ‡¬ðŸ‡µ",
        "id": 41,
        "iso2": "GP",
        "iso3": "GLP",
        "name": "Guadeloupe"
    },
    {
        "dial_code": "81",
        "flag": "ðŸ‡¯ðŸ‡µ",
        "id": 42,
        "iso2": "JP",
        "iso3": "JPN",
        "name": "Japan"
    },
    {
        "dial_code": "592",
        "flag": "ðŸ‡¬ðŸ‡¾",
        "id": 43,
        "iso2": "GY",
        "iso3": "GUY",
        "name": "Guyana"
    },
    {
        "dial_code": "+44-1481",
        "flag": "ðŸ‡¬ðŸ‡¬",
        "id": 44,
        "iso2": "GG",
        "iso3": "GGY",
        "name": "Guernsey"
    },
    {
        "dial_code": "594",
        "flag": "ðŸ‡¬ðŸ‡«",
        "id": 45,
        "iso2": "GF",
        "iso3": "GUF",
        "name": "French Guiana"
    },
    {
        "dial_code": "995",
        "flag": "ðŸ‡¬ðŸ‡ª",
        "id": 46,
        "iso2": "GE",
        "iso3": "GEO",
        "name": "Georgia"
    },
    {
        "dial_code": "+1-473",
        "flag": "ðŸ‡¬ðŸ‡©",
        "id": 47,
        "iso2": "GD",
        "iso3": "GRD",
        "name": "Grenada"
    },
    {
        "dial_code": "44",
        "flag": "ðŸ‡¬ðŸ‡§",
        "id": 48,
        "iso2": "GB",
        "iso3": "GBR",
        "name": "United Kingdom"
    },
    {
        "dial_code": "241",
        "flag": "ðŸ‡¬ðŸ‡¦",
        "id": 49,
        "iso2": "GA",
        "iso3": "GAB",
        "name": "Gabon"
    },
    {
        "dial_code": "503",
        "flag": "ðŸ‡¸ðŸ‡»",
        "id": 50,
        "iso2": "SV",
        "iso3": "SLV",
        "name": "El Salvador"
    },
    {
        "dial_code": "224",
        "flag": "ðŸ‡¬ðŸ‡³",
        "id": 51,
        "iso2": "GN",
        "iso3": "GIN",
        "name": "Guinea"
    },
    {
        "dial_code": "220",
        "flag": "ðŸ‡¬ðŸ‡²",
        "id": 52,
        "iso2": "GM",
        "iso3": "GMB",
        "name": "Gambia"
    },
    {
        "dial_code": "299",
        "flag": "ðŸ‡¬ðŸ‡±",
        "id": 53,
        "iso2": "GL",
        "iso3": "GRL",
        "name": "Greenland"
    },
    {
        "dial_code": "350",
        "flag": "ðŸ‡¬ðŸ‡®",
        "id": 54,
        "iso2": "GI",
        "iso3": "GIB",
        "name": "Gibraltar"
    },
    {
        "dial_code": "233",
        "flag": "ðŸ‡¬ðŸ‡­",
        "id": 55,
        "iso2": "GH",
        "iso3": "GHA",
        "name": "Ghana"
    },
    {
        "dial_code": "968",
        "flag": "ðŸ‡´ðŸ‡²",
        "id": 56,
        "iso2": "OM",
        "iso3": "OMN",
        "name": "Oman"
    },
    {
        "dial_code": "216",
        "flag": "ðŸ‡¹ðŸ‡³",
        "id": 57,
        "iso2": "TN",
        "iso3": "TUN",
        "name": "Tunisia"
    },
    {
        "dial_code": "962",
        "flag": "ðŸ‡¯ðŸ‡´",
        "id": 58,
        "iso2": "JO",
        "iso3": "JOR",
        "name": "Jordan"
    },
    {
        "dial_code": "385",
        "flag": "ðŸ‡­ðŸ‡·",
        "id": 59,
        "iso2": "HR",
        "iso3": "HRV",
        "name": "Croatia"
    },
    {
        "dial_code": "509",
        "flag": "ðŸ‡­ðŸ‡¹",
        "id": 60,
        "iso2": "HT",
        "iso3": "HTI",
        "name": "Haiti"
    },
    {
        "dial_code": "36",
        "flag": "ðŸ‡­ðŸ‡º",
        "id": 61,
        "iso2": "HU",
        "iso3": "HUN",
        "name": "Hungary"
    },
    {
        "dial_code": "852",
        "flag": "ðŸ‡­ðŸ‡°",
        "id": 62,
        "iso2": "HK",
        "iso3": "HKG",
        "name": "Hong Kong"
    },
    {
        "dial_code": "504",
        "flag": "ðŸ‡­ðŸ‡³",
        "id": 63,
        "iso2": "HN",
        "iso3": "HND",
        "name": "Honduras"
    },
    {
        "dial_code": " ",
        "flag": "ðŸ‡­ðŸ‡²",
        "id": 64,
        "iso2": "HM",
        "iso3": "HMD",
        "name": "Heard Island and McDonald Islands"
    },
    {
        "dial_code": "58",
        "flag": "ðŸ‡»ðŸ‡ª",
        "id": 65,
        "iso2": "VE",
        "iso3": "VEN",
        "name": "Venezuela"
    },
    {
        "dial_code": "+1-787",
        "flag": "ðŸ‡µðŸ‡·",
        "id": 66,
        "iso2": "PR",
        "iso3": "PRI",
        "name": "Puerto Rico"
    },
    {
        "dial_code": "970",
        "flag": "ðŸ‡µðŸ‡¸",
        "id": 67,
        "iso2": "PS",
        "iso3": "PSE",
        "name": "Palestinian Territory"
    },
    {
        "dial_code": "680",
        "flag": "ðŸ‡µðŸ‡¼",
        "id": 68,
        "iso2": "PW",
        "iso3": "PLW",
        "name": "Palau"
    },
    {
        "dial_code": "351",
        "flag": "ðŸ‡µðŸ‡¹",
        "id": 69,
        "iso2": "PT",
        "iso3": "PRT",
        "name": "Portugal"
    },
    {
        "dial_code": "47",
        "flag": "ðŸ‡¸ðŸ‡¯",
        "id": 70,
        "iso2": "SJ",
        "iso3": "SJM",
        "name": "Svalbard and Jan Mayen"
    },
    {
        "dial_code": "595",
        "flag": "ðŸ‡µðŸ‡¾",
        "id": 71,
        "iso2": "PY",
        "iso3": "PRY",
        "name": "Paraguay"
    },
    {
        "dial_code": "964",
        "flag": "ðŸ‡®ðŸ‡¶",
        "id": 72,
        "iso2": "IQ",
        "iso3": "IRQ",
        "name": "Iraq"
    },
    {
        "dial_code": "507",
        "flag": "ðŸ‡µðŸ‡¦",
        "id": 73,
        "iso2": "PA",
        "iso3": "PAN",
        "name": "Panama"
    },
    {
        "dial_code": "689",
        "flag": "ðŸ‡µðŸ‡«",
        "id": 74,
        "iso2": "PF",
        "iso3": "PYF",
        "name": "French Polynesia"
    },
    {
        "dial_code": "675",
        "flag": "ðŸ‡µðŸ‡¬",
        "id": 75,
        "iso2": "PG",
        "iso3": "PNG",
        "name": "Papua New Guinea"
    },
    {
        "dial_code": "51",
        "flag": "ðŸ‡µðŸ‡ª",
        "id": 76,
        "iso2": "PE",
        "iso3": "PER",
        "name": "Peru"
    },
    {
        "dial_code": "92",
        "flag": "ðŸ‡µðŸ‡°",
        "id": 77,
        "iso2": "PK",
        "iso3": "PAK",
        "name": "Pakistan"
    },
    {
        "dial_code": "63",
        "flag": "ðŸ‡µðŸ‡­",
        "id": 78,
        "iso2": "PH",
        "iso3": "PHL",
        "name": "Philippines"
    },
    {
        "dial_code": "870",
        "flag": "ðŸ‡µðŸ‡³",
        "id": 79,
        "iso2": "PN",
        "iso3": "PCN",
        "name": "Pitcairn"
    },
    {
        "dial_code": "48",
        "flag": "ðŸ‡µðŸ‡±",
        "id": 80,
        "iso2": "PL",
        "iso3": "POL",
        "name": "Poland"
    },
    {
        "dial_code": "508",
        "flag": "ðŸ‡µðŸ‡²",
        "id": 81,
        "iso2": "PM",
        "iso3": "SPM",
        "name": "Saint Pierre and Miquelon"
    },
    {
        "dial_code": "260",
        "flag": "ðŸ‡¿ðŸ‡²",
        "id": 82,
        "iso2": "ZM",
        "iso3": "ZMB",
        "name": "Zambia"
    },
    {
        "dial_code": "212",
        "flag": "ðŸ‡ªðŸ‡­",
        "id": 83,
        "iso2": "EH",
        "iso3": "ESH",
        "name": "Western Sahara"
    },
    {
        "dial_code": "372",
        "flag": "ðŸ‡ªðŸ‡ª",
        "id": 84,
        "iso2": "EE",
        "iso3": "EST",
        "name": "Estonia"
    },
    {
        "dial_code": "20",
        "flag": "ðŸ‡ªðŸ‡¬",
        "id": 85,
        "iso2": "EG",
        "iso3": "EGY",
        "name": "Egypt"
    },
    {
        "dial_code": "27",
        "flag": "ðŸ‡¿ðŸ‡¦",
        "id": 86,
        "iso2": "ZA",
        "iso3": "ZAF",
        "name": "South Africa"
    },
    {
        "dial_code": "593",
        "flag": "ðŸ‡ªðŸ‡¨",
        "id": 87,
        "iso2": "EC",
        "iso3": "ECU",
        "name": "Ecuador"
    },
    {
        "dial_code": "39",
        "flag": "ðŸ‡®ðŸ‡¹",
        "id": 88,
        "iso2": "IT",
        "iso3": "ITA",
        "name": "Italy"
    },
    {
        "dial_code": "84",
        "flag": "ðŸ‡»ðŸ‡³",
        "id": 89,
        "iso2": "VN",
        "iso3": "VNM",
        "name": "Vietnam"
    },
    {
        "dial_code": "677",
        "flag": "ðŸ‡¸ðŸ‡§",
        "id": 90,
        "iso2": "SB",
        "iso3": "SLB",
        "name": "Solomon Islands"
    },
    {
        "dial_code": "251",
        "flag": "ðŸ‡ªðŸ‡¹",
        "id": 91,
        "iso2": "ET",
        "iso3": "ETH",
        "name": "Ethiopia"
    },
    {
        "dial_code": "252",
        "flag": "ðŸ‡¸ðŸ‡´",
        "id": 92,
        "iso2": "SO",
        "iso3": "SOM",
        "name": "Somalia"
    },
    {
        "dial_code": "263",
        "flag": "ðŸ‡¿ðŸ‡¼",
        "id": 93,
        "iso2": "ZW",
        "iso3": "ZWE",
        "name": "Zimbabwe"
    },
    {
        "dial_code": "966",
        "flag": "ðŸ‡¸ðŸ‡¦",
        "id": 94,
        "iso2": "SA",
        "iso3": "SAU",
        "name": "Saudi Arabia"
    },
    {
        "dial_code": "34",
        "flag": "ðŸ‡ªðŸ‡¸",
        "id": 95,
        "iso2": "ES",
        "iso3": "ESP",
        "name": "Spain"
    },
    {
        "dial_code": "291",
        "flag": "ðŸ‡ªðŸ‡·",
        "id": 96,
        "iso2": "ER",
        "iso3": "ERI",
        "name": "Eritrea"
    },
    {
        "dial_code": "382",
        "flag": "ðŸ‡²ðŸ‡ª",
        "id": 97,
        "iso2": "ME",
        "iso3": "MNE",
        "name": "Montenegro"
    },
    {
        "dial_code": "373",
        "flag": "ðŸ‡²ðŸ‡©",
        "id": 98,
        "iso2": "MD",
        "iso3": "MDA",
        "name": "Moldova"
    },
    {
        "dial_code": "261",
        "flag": "ðŸ‡²ðŸ‡¬",
        "id": 99,
        "iso2": "MG",
        "iso3": "MDG",
        "name": "Madagascar"
    },
    {
        "dial_code": "590",
        "flag": "ðŸ‡²ðŸ‡«",
        "id": 100,
        "iso2": "MF",
        "iso3": "MAF",
        "name": "Saint Martin"
    },
    {
        "dial_code": "212",
        "flag": "ðŸ‡²ðŸ‡¦",
        "id": 101,
        "iso2": "MA",
        "iso3": "MAR",
        "name": "Morocco"
    },
    {
        "dial_code": "377",
        "flag": "ðŸ‡²ðŸ‡¨",
        "id": 102,
        "iso2": "MC",
        "iso3": "MCO",
        "name": "Monaco"
    },
    {
        "dial_code": "998",
        "flag": "ðŸ‡ºðŸ‡¿",
        "id": 103,
        "iso2": "UZ",
        "iso3": "UZB",
        "name": "Uzbekistan"
    },
    {
        "dial_code": "95",
        "flag": "ðŸ‡²ðŸ‡²",
        "id": 104,
        "iso2": "MM",
        "iso3": "MMR",
        "name": "Myanmar"
    },
    {
        "dial_code": "223",
        "flag": "ðŸ‡²ðŸ‡±",
        "id": 105,
        "iso2": "ML",
        "iso3": "MLI",
        "name": "Mali"
    },
    {
        "dial_code": "853",
        "flag": "ðŸ‡²ðŸ‡´",
        "id": 106,
        "iso2": "MO",
        "iso3": "MAC",
        "name": "Macao"
    },
    {
        "dial_code": "976",
        "flag": "ðŸ‡²ðŸ‡³",
        "id": 107,
        "iso2": "MN",
        "iso3": "MNG",
        "name": "Mongolia"
    },
    {
        "dial_code": "692",
        "flag": "ðŸ‡²ðŸ‡­",
        "id": 108,
        "iso2": "MH",
        "iso3": "MHL",
        "name": "Marshall Islands"
    },
    {
        "dial_code": "389",
        "flag": "ðŸ‡²ðŸ‡°",
        "id": 109,
        "iso2": "MK",
        "iso3": "MKD",
        "name": "Macedonia"
    },
    {
        "dial_code": "230",
        "flag": "ðŸ‡²ðŸ‡º",
        "id": 110,
        "iso2": "MU",
        "iso3": "MUS",
        "name": "Mauritius"
    },
    {
        "dial_code": "356",
        "flag": "ðŸ‡²ðŸ‡¹",
        "id": 111,
        "iso2": "MT",
        "iso3": "MLT",
        "name": "Malta"
    },
    {
        "dial_code": "265",
        "flag": "ðŸ‡²ðŸ‡¼",
        "id": 112,
        "iso2": "MW",
        "iso3": "MWI",
        "name": "Malawi"
    },
    {
        "dial_code": "960",
        "flag": "ðŸ‡²ðŸ‡»",
        "id": 113,
        "iso2": "MV",
        "iso3": "MDV",
        "name": "Maldives"
    },
    {
        "dial_code": "596",
        "flag": "ðŸ‡²ðŸ‡¶",
        "id": 114,
        "iso2": "MQ",
        "iso3": "MTQ",
        "name": "Martinique"
    },
    {
        "dial_code": "+1-670",
        "flag": "ðŸ‡²ðŸ‡µ",
        "id": 115,
        "iso2": "MP",
        "iso3": "MNP",
        "name": "Northern Mariana Islands"
    },
    {
        "dial_code": "+1-664",
        "flag": "ðŸ‡²ðŸ‡¸",
        "id": 116,
        "iso2": "MS",
        "iso3": "MSR",
        "name": "Montserrat"
    },
    {
        "dial_code": "222",
        "flag": "ðŸ‡²ðŸ‡·",
        "id": 117,
        "iso2": "MR",
        "iso3": "MRT",
        "name": "Mauritania"
    },
    {
        "dial_code": "+44-1624",
        "flag": "ðŸ‡®ðŸ‡²",
        "id": 118,
        "iso2": "IM",
        "iso3": "IMN",
        "name": "Isle of Man"
    },
    {
        "dial_code": "256",
        "flag": "ðŸ‡ºðŸ‡¬",
        "id": 119,
        "iso2": "UG",
        "iso3": "UGA",
        "name": "Uganda"
    },
    {
        "dial_code": "255",
        "flag": "ðŸ‡¹ðŸ‡¿",
        "id": 120,
        "iso2": "TZ",
        "iso3": "TZA",
        "name": "Tanzania"
    },
    {
        "dial_code": "60",
        "flag": "ðŸ‡²ðŸ‡¾",
        "id": 121,
        "iso2": "MY",
        "iso3": "MYS",
        "name": "Malaysia"
    },
    {
        "dial_code": "52",
        "flag": "ðŸ‡²ðŸ‡½",
        "id": 122,
        "iso2": "MX",
        "iso3": "MEX",
        "name": "Mexico"
    },
    {
        "dial_code": "972",
        "flag": "ðŸ‡®ðŸ‡±",
        "id": 123,
        "iso2": "IL",
        "iso3": "ISR",
        "name": "Israel"
    },
    {
        "dial_code": "33",
        "flag": "ðŸ‡«ðŸ‡·",
        "id": 124,
        "iso2": "FR",
        "iso3": "FRA",
        "name": "France"
    },
    {
        "dial_code": "246",
        "flag": "ðŸ‡®ðŸ‡´",
        "id": 125,
        "iso2": "IO",
        "iso3": "IOT",
        "name": "British Indian Ocean Territory"
    },
    {
        "dial_code": "290",
        "flag": "ðŸ‡¸ðŸ‡­",
        "id": 126,
        "iso2": "SH",
        "iso3": "SHN",
        "name": "Saint Helena"
    },
    {
        "dial_code": "358",
        "flag": "ðŸ‡«ðŸ‡®",
        "id": 127,
        "iso2": "FI",
        "iso3": "FIN",
        "name": "Finland"
    },
    {
        "dial_code": "679",
        "flag": "ðŸ‡«ðŸ‡¯",
        "id": 128,
        "iso2": "FJ",
        "iso3": "FJI",
        "name": "Fiji"
    },
    {
        "dial_code": "500",
        "flag": "ðŸ‡«ðŸ‡°",
        "id": 129,
        "iso2": "FK",
        "iso3": "FLK",
        "name": "Falkland Islands"
    },
    {
        "dial_code": "691",
        "flag": "ðŸ‡«ðŸ‡²",
        "id": 130,
        "iso2": "FM",
        "iso3": "FSM",
        "name": "Micronesia"
    },
    {
        "dial_code": "298",
        "flag": "ðŸ‡«ðŸ‡´",
        "id": 131,
        "iso2": "FO",
        "iso3": "FRO",
        "name": "Faroe Islands"
    },
    {
        "dial_code": "505",
        "flag": "ðŸ‡³ðŸ‡®",
        "id": 132,
        "iso2": "NI",
        "iso3": "NIC",
        "name": "Nicaragua"
    },
    {
        "dial_code": "31",
        "flag": "ðŸ‡³ðŸ‡±",
        "id": 133,
        "iso2": "NL",
        "iso3": "NLD",
        "name": "Netherlands"
    },
    {
        "dial_code": "47",
        "flag": "ðŸ‡³ðŸ‡´",
        "id": 134,
        "iso2": "NO",
        "iso3": "NOR",
        "name": "Norway"
    },
    {
        "dial_code": "264",
        "flag": "ðŸ‡³ðŸ‡¦",
        "id": 135,
        "iso2": "NA",
        "iso3": "NAM",
        "name": "Namibia"
    },
    {
        "dial_code": "678",
        "flag": "ðŸ‡»ðŸ‡º",
        "id": 136,
        "iso2": "VU",
        "iso3": "VUT",
        "name": "Vanuatu"
    },
    {
        "dial_code": "687",
        "flag": "ðŸ‡³ðŸ‡¨",
        "id": 137,
        "iso2": "NC",
        "iso3": "NCL",
        "name": "New Caledonia"
    },
    {
        "dial_code": "227",
        "flag": "ðŸ‡³ðŸ‡ª",
        "id": 138,
        "iso2": "NE",
        "iso3": "NER",
        "name": "Niger"
    },
    {
        "dial_code": "672",
        "flag": "ðŸ‡³ðŸ‡«",
        "id": 139,
        "iso2": "NF",
        "iso3": "NFK",
        "name": "Norfolk Island"
    },
    {
        "dial_code": "234",
        "flag": "ðŸ‡³ðŸ‡¬",
        "id": 140,
        "iso2": "NG",
        "iso3": "NGA",
        "name": "Nigeria"
    },
    {
        "dial_code": "64",
        "flag": "ðŸ‡³ðŸ‡¿",
        "id": 141,
        "iso2": "NZ",
        "iso3": "NZL",
        "name": "New Zealand"
    },
    {
        "dial_code": "977",
        "flag": "ðŸ‡³ðŸ‡µ",
        "id": 142,
        "iso2": "NP",
        "iso3": "NPL",
        "name": "Nepal"
    },
    {
        "dial_code": "674",
        "flag": "ðŸ‡³ðŸ‡·",
        "id": 143,
        "iso2": "NR",
        "iso3": "NRU",
        "name": "Nauru"
    },
    {
        "dial_code": "683",
        "flag": "ðŸ‡³ðŸ‡º",
        "id": 144,
        "iso2": "NU",
        "iso3": "NIU",
        "name": "Niue"
    },
    {
        "dial_code": "682",
        "flag": "ðŸ‡¨ðŸ‡°",
        "id": 145,
        "iso2": "CK",
        "iso3": "COK",
        "name": "Cook Islands"
    },
    {
        "dial_code": "",
        "flag": "ðŸ‡½ðŸ‡°",
        "id": 146,
        "iso2": "XK",
        "iso3": "XKX",
        "name": "Kosovo"
    },
    {
        "dial_code": "225",
        "flag": "ðŸ‡¨ðŸ‡®",
        "id": 147,
        "iso2": "CI",
        "iso3": "CIV",
        "name": "Ivory Coast"
    },
    {
        "dial_code": "41",
        "flag": "ðŸ‡¨ðŸ‡­",
        "id": 148,
        "iso2": "CH",
        "iso3": "CHE",
        "name": "Switzerland"
    },
    {
        "dial_code": "57",
        "flag": "ðŸ‡¨ðŸ‡´",
        "id": 149,
        "iso2": "CO",
        "iso3": "COL",
        "name": "Colombia"
    },
    {
        "dial_code": "86",
        "flag": "ðŸ‡¨ðŸ‡³",
        "id": 150,
        "iso2": "CN",
        "iso3": "CHN",
        "name": "China"
    },
    {
        "dial_code": "237",
        "flag": "ðŸ‡¨ðŸ‡²",
        "id": 151,
        "iso2": "CM",
        "iso3": "CMR",
        "name": "Cameroon"
    },
    {
        "dial_code": "56",
        "flag": "ðŸ‡¨ðŸ‡±",
        "id": 152,
        "iso2": "CL",
        "iso3": "CHL",
        "name": "Chile"
    },
    {
        "dial_code": "61",
        "flag": "ðŸ‡¨ðŸ‡¨",
        "id": 153,
        "iso2": "CC",
        "iso3": "CCK",
        "name": "Cocos Islands"
    },
    {
        "dial_code": "1",
        "flag": "ðŸ‡¨ðŸ‡¦",
        "id": 154,
        "iso2": "CA",
        "iso3": "CAN",
        "name": "Canada"
    },
    {
        "dial_code": "242",
        "flag": "ðŸ‡¨ðŸ‡¬",
        "id": 155,
        "iso2": "CG",
        "iso3": "COG",
        "name": "Republic of the Congo"
    },
    {
        "dial_code": "236",
        "flag": "ðŸ‡¨ðŸ‡«",
        "id": 156,
        "iso2": "CF",
        "iso3": "CAF",
        "name": "Central African Republic"
    },
    {
        "dial_code": "243",
        "flag": "ðŸ‡¨ðŸ‡©",
        "id": 157,
        "iso2": "CD",
        "iso3": "COD",
        "name": "Democratic Republic of the Congo"
    },
    {
        "dial_code": "420",
        "flag": "ðŸ‡¨ðŸ‡¿",
        "id": 158,
        "iso2": "CZ",
        "iso3": "CZE",
        "name": "Czech Republic"
    },
    {
        "dial_code": "357",
        "flag": "ðŸ‡¨ðŸ‡¾",
        "id": 159,
        "iso2": "CY",
        "iso3": "CYP",
        "name": "Cyprus"
    },
    {
        "dial_code": "61",
        "flag": "ðŸ‡¨ðŸ‡½",
        "id": 160,
        "iso2": "CX",
        "iso3": "CXR",
        "name": "Christmas Island"
    },
    {
        "dial_code": "506",
        "flag": "ðŸ‡¨ðŸ‡·",
        "id": 161,
        "iso2": "CR",
        "iso3": "CRI",
        "name": "Costa Rica"
    },
    {
        "dial_code": "599",
        "flag": "ðŸ‡¨ðŸ‡¼",
        "id": 162,
        "iso2": "CW",
        "iso3": "CUW",
        "name": "Curacao"
    },
    {
        "dial_code": "238",
        "flag": "ðŸ‡¨ðŸ‡»",
        "id": 163,
        "iso2": "CV",
        "iso3": "CPV",
        "name": "Cape Verde"
    },
    {
        "dial_code": "53",
        "flag": "ðŸ‡¨ðŸ‡º",
        "id": 164,
        "iso2": "CU",
        "iso3": "CUB",
        "name": "Cuba"
    },
    {
        "dial_code": "268",
        "flag": "ðŸ‡¸ðŸ‡¿",
        "id": 165,
        "iso2": "SZ",
        "iso3": "SWZ",
        "name": "Swaziland"
    },
    {
        "dial_code": "963",
        "flag": "ðŸ‡¸ðŸ‡¾",
        "id": 166,
        "iso2": "SY",
        "iso3": "SYR",
        "name": "Syria"
    },
    {
        "dial_code": "599",
        "flag": "ðŸ‡¸ðŸ‡½",
        "id": 167,
        "iso2": "SX",
        "iso3": "SXM",
        "name": "Sint Maarten"
    },
    {
        "dial_code": "996",
        "flag": "ðŸ‡°ðŸ‡¬",
        "id": 168,
        "iso2": "KG",
        "iso3": "KGZ",
        "name": "Kyrgyzstan"
    },
    {
        "dial_code": "254",
        "flag": "ðŸ‡°ðŸ‡ª",
        "id": 169,
        "iso2": "KE",
        "iso3": "KEN",
        "name": "Kenya"
    },
    {
        "dial_code": "211",
        "flag": "ðŸ‡¸ðŸ‡¸",
        "id": 170,
        "iso2": "SS",
        "iso3": "SSD",
        "name": "South Sudan"
    },
    {
        "dial_code": "597",
        "flag": "ðŸ‡¸ðŸ‡·",
        "id": 171,
        "iso2": "SR",
        "iso3": "SUR",
        "name": "Suriname"
    },
    {
        "dial_code": "686",
        "flag": "ðŸ‡°ðŸ‡®",
        "id": 172,
        "iso2": "KI",
        "iso3": "KIR",
        "name": "Kiribati"
    },
    {
        "dial_code": "855",
        "flag": "ðŸ‡°ðŸ‡­",
        "id": 173,
        "iso2": "KH",
        "iso3": "KHM",
        "name": "Cambodia"
    },
    {
        "dial_code": "+1-869",
        "flag": "ðŸ‡°ðŸ‡³",
        "id": 174,
        "iso2": "KN",
        "iso3": "KNA",
        "name": "Saint Kitts and Nevis"
    },
    {
        "dial_code": "269",
        "flag": "ðŸ‡°ðŸ‡²",
        "id": 175,
        "iso2": "KM",
        "iso3": "COM",
        "name": "Comoros"
    },
    {
        "dial_code": "239",
        "flag": "ðŸ‡¸ðŸ‡¹",
        "id": 176,
        "iso2": "ST",
        "iso3": "STP",
        "name": "Sao Tome and Principe"
    },
    {
        "dial_code": "421",
        "flag": "ðŸ‡¸ðŸ‡°",
        "id": 177,
        "iso2": "SK",
        "iso3": "SVK",
        "name": "Slovakia"
    },
    {
        "dial_code": "82",
        "flag": "ðŸ‡°ðŸ‡·",
        "id": 178,
        "iso2": "KR",
        "iso3": "KOR",
        "name": "South Korea"
    },
    {
        "dial_code": "386",
        "flag": "ðŸ‡¸ðŸ‡®",
        "id": 179,
        "iso2": "SI",
        "iso3": "SVN",
        "name": "Slovenia"
    },
    {
        "dial_code": "850",
        "flag": "ðŸ‡°ðŸ‡µ",
        "id": 180,
        "iso2": "KP",
        "iso3": "PRK",
        "name": "North Korea"
    },
    {
        "dial_code": "965",
        "flag": "ðŸ‡°ðŸ‡¼",
        "id": 181,
        "iso2": "KW",
        "iso3": "KWT",
        "name": "Kuwait"
    },
    {
        "dial_code": "221",
        "flag": "ðŸ‡¸ðŸ‡³",
        "id": 182,
        "iso2": "SN",
        "iso3": "SEN",
        "name": "Senegal"
    },
    {
        "dial_code": "378",
        "flag": "ðŸ‡¸ðŸ‡²",
        "id": 183,
        "iso2": "SM",
        "iso3": "SMR",
        "name": "San Marino"
    },
    {
        "dial_code": "232",
        "flag": "ðŸ‡¸ðŸ‡±",
        "id": 184,
        "iso2": "SL",
        "iso3": "SLE",
        "name": "Sierra Leone"
    },
    {
        "dial_code": "248",
        "flag": "ðŸ‡¸ðŸ‡¨",
        "id": 185,
        "iso2": "SC",
        "iso3": "SYC",
        "name": "Seychelles"
    },
    {
        "dial_code": "7",
        "flag": "ðŸ‡°ðŸ‡¿",
        "id": 186,
        "iso2": "KZ",
        "iso3": "KAZ",
        "name": "Kazakhstan"
    },
    {
        "dial_code": "+1-345",
        "flag": "ðŸ‡°ðŸ‡¾",
        "id": 187,
        "iso2": "KY",
        "iso3": "CYM",
        "name": "Cayman Islands"
    },
    {
        "dial_code": "65",
        "flag": "ðŸ‡¸ðŸ‡¬",
        "id": 188,
        "iso2": "SG",
        "iso3": "SGP",
        "name": "Singapore"
    },
    {
        "dial_code": "46",
        "flag": "ðŸ‡¸ðŸ‡ª",
        "id": 189,
        "iso2": "SE",
        "iso3": "SWE",
        "name": "Sweden"
    },
    {
        "dial_code": "249",
        "flag": "ðŸ‡¸ðŸ‡©",
        "id": 190,
        "iso2": "SD",
        "iso3": "SDN",
        "name": "Sudan"
    },
    {
        "dial_code": "+1-809",
        "flag": "ðŸ‡©ðŸ‡´",
        "id": 191,
        "iso2": "DO",
        "iso3": "DOM",
        "name": "Dominican Republic"
    },
    {
        "dial_code": "+1-767",
        "flag": "ðŸ‡©ðŸ‡²",
        "id": 192,
        "iso2": "DM",
        "iso3": "DMA",
        "name": "Dominica"
    },
    {
        "dial_code": "253",
        "flag": "ðŸ‡©ðŸ‡¯",
        "id": 193,
        "iso2": "DJ",
        "iso3": "DJI",
        "name": "Djibouti"
    },
    {
        "dial_code": "45",
        "flag": "ðŸ‡©ðŸ‡°",
        "id": 194,
        "iso2": "DK",
        "iso3": "DNK",
        "name": "Denmark"
    },
    {
        "dial_code": "+1-284",
        "flag": "ðŸ‡»ðŸ‡¬",
        "id": 195,
        "iso2": "VG",
        "iso3": "VGB",
        "name": "British Virgin Islands"
    },
    {
        "dial_code": "49",
        "flag": "ðŸ‡©ðŸ‡ª",
        "id": 196,
        "iso2": "DE",
        "iso3": "DEU",
        "name": "Germany"
    },
    {
        "dial_code": "967",
        "flag": "ðŸ‡¾ðŸ‡ª",
        "id": 197,
        "iso2": "YE",
        "iso3": "YEM",
        "name": "Yemen"
    },
    {
        "dial_code": "213",
        "flag": "ðŸ‡©ðŸ‡¿",
        "id": 198,
        "iso2": "DZ",
        "iso3": "DZA",
        "name": "Algeria"
    },
    {
        "dial_code": "1",
        "flag": "ðŸ‡ºðŸ‡¸",
        "id": 199,
        "iso2": "US",
        "iso3": "USA",
        "name": "United States"
    },
    {
        "dial_code": "598",
        "flag": "ðŸ‡ºðŸ‡¾",
        "id": 200,
        "iso2": "UY",
        "iso3": "URY",
        "name": "Uruguay"
    },
    {
        "dial_code": "262",
        "flag": "ðŸ‡¾ðŸ‡¹",
        "id": 201,
        "iso2": "YT",
        "iso3": "MYT",
        "name": "Mayotte"
    },
    {
        "dial_code": "1",
        "flag": "ðŸ‡ºðŸ‡²",
        "id": 202,
        "iso2": "UM",
        "iso3": "UMI",
        "name": "United States Minor Outlying Islands"
    },
    {
        "dial_code": "961",
        "flag": "ðŸ‡±ðŸ‡§",
        "id": 203,
        "iso2": "LB",
        "iso3": "LBN",
        "name": "Lebanon"
    },
    {
        "dial_code": "+1-758",
        "flag": "ðŸ‡±ðŸ‡¨",
        "id": 204,
        "iso2": "LC",
        "iso3": "LCA",
        "name": "Saint Lucia"
    },
    {
        "dial_code": "856",
        "flag": "ðŸ‡±ðŸ‡¦",
        "id": 205,
        "iso2": "LA",
        "iso3": "LAO",
        "name": "Laos"
    },
    {
        "dial_code": "688",
        "flag": "ðŸ‡¹ðŸ‡»",
        "id": 206,
        "iso2": "TV",
        "iso3": "TUV",
        "name": "Tuvalu"
    },
    {
        "dial_code": "886",
        "flag": "ðŸ‡¹ðŸ‡¼",
        "id": 207,
        "iso2": "TW",
        "iso3": "TWN",
        "name": "Taiwan"
    },
    {
        "dial_code": "+1-868",
        "flag": "ðŸ‡¹ðŸ‡¹",
        "id": 208,
        "iso2": "TT",
        "iso3": "TTO",
        "name": "Trinidad and Tobago"
    },
    {
        "dial_code": "90",
        "flag": "ðŸ‡¹ðŸ‡·",
        "id": 209,
        "iso2": "TR",
        "iso3": "TUR",
        "name": "Turkey"
    },
    {
        "dial_code": "94",
        "flag": "ðŸ‡±ðŸ‡°",
        "id": 210,
        "iso2": "LK",
        "iso3": "LKA",
        "name": "Sri Lanka"
    },
    {
        "dial_code": "423",
        "flag": "ðŸ‡±ðŸ‡®",
        "id": 211,
        "iso2": "LI",
        "iso3": "LIE",
        "name": "Liechtenstein"
    },
    {
        "dial_code": "371",
        "flag": "ðŸ‡±ðŸ‡»",
        "id": 212,
        "iso2": "LV",
        "iso3": "LVA",
        "name": "Latvia"
    },
    {
        "dial_code": "676",
        "flag": "ðŸ‡¹ðŸ‡´",
        "id": 213,
        "iso2": "TO",
        "iso3": "TON",
        "name": "Tonga"
    },
    {
        "dial_code": "370",
        "flag": "ðŸ‡±ðŸ‡¹",
        "id": 214,
        "iso2": "LT",
        "iso3": "LTU",
        "name": "Lithuania"
    },
    {
        "dial_code": "352",
        "flag": "ðŸ‡±ðŸ‡º",
        "id": 215,
        "iso2": "LU",
        "iso3": "LUX",
        "name": "Luxembourg"
    },
    {
        "dial_code": "231",
        "flag": "ðŸ‡±ðŸ‡·",
        "id": 216,
        "iso2": "LR",
        "iso3": "LBR",
        "name": "Liberia"
    },
    {
        "dial_code": "266",
        "flag": "ðŸ‡±ðŸ‡¸",
        "id": 217,
        "iso2": "LS",
        "iso3": "LSO",
        "name": "Lesotho"
    },
    {
        "dial_code": "66",
        "flag": "ðŸ‡¹ðŸ‡­",
        "id": 218,
        "iso2": "TH",
        "iso3": "THA",
        "name": "Thailand"
    },
    {
        "dial_code": "",
        "flag": "ðŸ‡¹ðŸ‡«",
        "id": 219,
        "iso2": "TF",
        "iso3": "ATF",
        "name": "French Southern Territories"
    },
    {
        "dial_code": "228",
        "flag": "ðŸ‡¹ðŸ‡¬",
        "id": 220,
        "iso2": "TG",
        "iso3": "TGO",
        "name": "Togo"
    },
    {
        "dial_code": "235",
        "flag": "ðŸ‡¹ðŸ‡©",
        "id": 221,
        "iso2": "TD",
        "iso3": "TCD",
        "name": "Chad"
    },
    {
        "dial_code": "+1-649",
        "flag": "ðŸ‡¹ðŸ‡¨",
        "id": 222,
        "iso2": "TC",
        "iso3": "TCA",
        "name": "Turks and Caicos Islands"
    },
    {
        "dial_code": "218",
        "flag": "ðŸ‡±ðŸ‡¾",
        "id": 223,
        "iso2": "LY",
        "iso3": "LBY",
        "name": "Libya"
    },
    {
        "dial_code": "379",
        "flag": "ðŸ‡»ðŸ‡¦",
        "id": 224,
        "iso2": "VA",
        "iso3": "VAT",
        "name": "Vatican"
    },
    {
        "dial_code": "+1-784",
        "flag": "ðŸ‡»ðŸ‡¨",
        "id": 225,
        "iso2": "VC",
        "iso3": "VCT",
        "name": "Saint Vincent and the Grenadines"
    },
    {
        "dial_code": "971",
        "flag": "ðŸ‡¦ðŸ‡ª",
        "id": 226,
        "iso2": "AE",
        "iso3": "ARE",
        "name": "United Arab Emirates"
    },
    {
        "dial_code": "376",
        "flag": "ðŸ‡¦ðŸ‡©",
        "id": 227,
        "iso2": "AD",
        "iso3": "AND",
        "name": "Andorra"
    },
    {
        "dial_code": "+1-268",
        "flag": "ðŸ‡¦ðŸ‡¬",
        "id": 228,
        "iso2": "AG",
        "iso3": "ATG",
        "name": "Antigua and Barbuda"
    },
    {
        "dial_code": "93",
        "flag": "ðŸ‡¦ðŸ‡«",
        "id": 229,
        "iso2": "AF",
        "iso3": "AFG",
        "name": "Afghanistan"
    },
    {
        "dial_code": "+1-264",
        "flag": "ðŸ‡¦ðŸ‡®",
        "id": 230,
        "iso2": "AI",
        "iso3": "AIA",
        "name": "Anguilla"
    },
    {
        "dial_code": "+1-340",
        "flag": "ðŸ‡»ðŸ‡®",
        "id": 231,
        "iso2": "VI",
        "iso3": "VIR",
        "name": "U.S. Virgin Islands"
    },
    {
        "dial_code": "354",
        "flag": "ðŸ‡®ðŸ‡¸",
        "id": 232,
        "iso2": "IS",
        "iso3": "ISL",
        "name": "Iceland"
    },
    {
        "dial_code": "98",
        "flag": "ðŸ‡®ðŸ‡·",
        "id": 233,
        "iso2": "IR",
        "iso3": "IRN",
        "name": "Iran"
    },
    {
        "dial_code": "374",
        "flag": "ðŸ‡¦ðŸ‡²",
        "id": 234,
        "iso2": "AM",
        "iso3": "ARM",
        "name": "Armenia"
    },
    {
        "dial_code": "355",
        "flag": "ðŸ‡¦ðŸ‡±",
        "id": 235,
        "iso2": "AL",
        "iso3": "ALB",
        "name": "Albania"
    },
    {
        "dial_code": "244",
        "flag": "ðŸ‡¦ðŸ‡´",
        "id": 236,
        "iso2": "AO",
        "iso3": "AGO",
        "name": "Angola"
    },
    {
        "dial_code": "",
        "flag": "ðŸ‡¦ðŸ‡¶",
        "id": 237,
        "iso2": "AQ",
        "iso3": "ATA",
        "name": "Antarctica"
    },
    {
        "dial_code": "+1-684",
        "flag": "ðŸ‡¦ðŸ‡¸",
        "id": 238,
        "iso2": "AS",
        "iso3": "ASM",
        "name": "American Samoa"
    },
    {
        "dial_code": "54",
        "flag": "ðŸ‡¦ðŸ‡·",
        "id": 239,
        "iso2": "AR",
        "iso3": "ARG",
        "name": "Argentina"
    },
    {
        "dial_code": "61",
        "flag": "ðŸ‡¦ðŸ‡º",
        "id": 240,
        "iso2": "AU",
        "iso3": "AUS",
        "name": "Australia"
    },
    {
        "dial_code": "43",
        "flag": "ðŸ‡¦ðŸ‡¹",
        "id": 241,
        "iso2": "AT",
        "iso3": "AUT",
        "name": "Austria"
    },
    {
        "dial_code": "297",
        "flag": "ðŸ‡¦ðŸ‡¼",
        "id": 242,
        "iso2": "AW",
        "iso3": "ABW",
        "name": "Aruba"
    },
    {
        "dial_code": "91",
        "flag": "ðŸ‡®ðŸ‡³",
        "id": 243,
        "iso2": "IN",
        "iso3": "IND",
        "name": "India"
    },
    {
        "dial_code": "+358-18",
        "flag": "ðŸ‡¦ðŸ‡½",
        "id": 244,
        "iso2": "AX",
        "iso3": "ALA",
        "name": "Aland Islands"
    },
    {
        "dial_code": "994",
        "flag": "ðŸ‡¦ðŸ‡¿",
        "id": 245,
        "iso2": "AZ",
        "iso3": "AZE",
        "name": "Azerbaijan"
    },
    {
        "dial_code": "353",
        "flag": "ðŸ‡®ðŸ‡ª",
        "id": 246,
        "iso2": "IE",
        "iso3": "IRL",
        "name": "Ireland"
    },
    {
        "dial_code": "62",
        "flag": "ðŸ‡®ðŸ‡©",
        "id": 247,
        "iso2": "ID",
        "iso3": "IDN",
        "name": "Indonesia"
    },
    {
        "dial_code": "380",
        "flag": "ðŸ‡ºðŸ‡¦",
        "id": 248,
        "iso2": "UA",
        "iso3": "UKR",
        "name": "Ukraine"
    },
    {
        "dial_code": "974",
        "flag": "ðŸ‡¶ðŸ‡¦",
        "id": 249,
        "iso2": "QA",
        "iso3": "QAT",
        "name": "Qatar"
    },
    {
        "dial_code": "258",
        "flag": "ðŸ‡²ðŸ‡¿",
        "id": 250,
        "iso2": "MZ",
        "iso3": "MOZ",
        "name": "Mozambique"
    }
]
